{
  "type": "FeatureCollection",
  "features": [
    {
      "type": "Feature",
      "properties": {
        "norad_id": 34079,
        "name": "IRIDIUM 33 DEB",
        "group": "iridium-33-debris",
        "lat": 43.544370266401216,
        "lon": -177.38794519033638,
        "alt_km": 617.1711542268449,
        "timestamp": "2025-12-18T10:51:26.195656+00:00",
        "meta_object_name": "IRIDIUM 33 DEB",
        "meta_object_id": "1997-051CN",
        "meta_epoch": "2025-12-17T18:50:10.156992",
        "meta_mean_motion": 14.83656312,
        "meta_eccentricity": 0.00049485,
        "meta_inclination": 86.3771,
        "meta_ra_of_asc_node": 6.368,
        "meta_arg_of_pericenter": 350.7531,
        "meta_mean_anomaly": 182.3458,
        "meta_ephemeris_type": 0,
        "meta_classification_type": "U",
        "meta_norad_cat_id": 34079,
        "meta_element_set_no": 999,
        "meta_rev_at_epoch": 89052,
        "meta_bstar": 0.0012457741,
        "meta_mean_motion_dot": 0.00010314,
        "meta_mean_motion_ddot": 0,
        "tle_line1": "1 34079U 97051CN  25351.78483978  .00010314  00000+0  12458-2 0  9995",
        "tle_line2": "2 34079  86.3771   6.3680 0004948 350.7531 182.3458 14.83656312890523"
      },
      "geometry": {
        "type": "Point",
        "coordinates": [
          -177.38794519033638,
          43.544370266401216
        ]
      }
    },
    {
      "type": "Feature",
      "properties": {
        "norad_id": 34088,
        "name": "IRIDIUM 33 DEB",
        "group": "iridium-33-debris",
        "lat": 29.93329880554595,
        "lon": 30.185575924368628,
        "alt_km": 594.0794873369696,
        "timestamp": "2025-12-18T10:51:26.195666+00:00",
        "meta_object_name": "IRIDIUM 33 DEB",
        "meta_object_id": "1997-051CX",
        "meta_epoch": "2025-12-17T14:19:35.325696",
        "meta_mean_motion": 14.91604153,
        "meta_eccentricity": 0.00061939,
        "meta_inclination": 86.3846,
        "meta_ra_of_asc_node": 28.4923,
        "meta_arg_of_pericenter": 160.6797,
        "meta_mean_anomaly": 318.9134,
        "meta_ephemeris_type": 0,
        "meta_classification_type": "U",
        "meta_norad_cat_id": 34088,
        "meta_element_set_no": 999,
        "meta_rev_at_epoch": 88814,
        "meta_bstar": 0.0018284036,
        "meta_mean_motion_dot": 0.00018404,
        "meta_mean_motion_ddot": 0,
        "tle_line1": "1 34088U 97051CX  25351.59693664  .00018404  00000+0  18284-2 0  9990",
        "tle_line2": "2 34088  86.3846  28.4923 0006193 160.6797 318.9134 14.91604153888145"
      },
      "geometry": {
        "type": "Point",
        "coordinates": [
          30.185575924368628,
          29.93329880554595
        ]
      }
    },
    {
      "type": "Feature",
      "properties": {
        "norad_id": 34091,
        "name": "IRIDIUM 33 DEB",
        "group": "iridium-33-debris",
        "lat": 21.350272035251898,
        "lon": 65.65020370162036,
        "alt_km": 629.8416891678153,
        "timestamp": "2025-12-18T10:51:26.195677+00:00",
        "meta_object_name": "IRIDIUM 33 DEB",
        "meta_object_id": "1997-051DA",
        "meta_epoch": "2025-12-17T16:56:16.368000",
        "meta_mean_motion": 14.82184261,
        "meta_eccentricity": 0.00335084,
        "meta_inclination": 86.3426,
        "meta_ra_of_asc_node": 64.5595,
        "meta_arg_of_pericenter": 275.1691,
        "meta_mean_anomaly": 84.5707,
        "meta_ephemeris_type": 0,
        "meta_classification_type": "U",
        "meta_norad_cat_id": 34091,
        "meta_element_set_no": 999,
        "meta_rev_at_epoch": 87940,
        "meta_bstar": 0.0033697127,
        "meta_mean_motion_dot": 0.00027207,
        "meta_mean_motion_ddot": 0,
        "tle_line1": "1 34091U 97051DA  25351.70574500  .00027207  00000+0  33697-2 0  9990",
        "tle_line2": "2 34091  86.3426  64.5595 0033508 275.1691  84.5707 14.82184261879408"
      },
      "geometry": {
        "type": "Point",
        "coordinates": [
          65.65020370162036,
          21.350272035251898
        ]
      }
    },
    {
      "type": "Feature",
      "properties": {
        "norad_id": 34097,
        "name": "IRIDIUM 33 DEB",
        "group": "iridium-33-debris",
        "lat": 19.562372729681734,
        "lon": 0.23996989164552207,
        "alt_km": 728.3079438684081,
        "timestamp": "2025-12-18T10:51:26.195688+00:00",
        "meta_object_name": "IRIDIUM 33 DEB",
        "meta_object_id": "1997-051DG",
        "meta_epoch": "2025-12-17T18:01:48.911520",
        "meta_mean_motion": 14.34816781,
        "meta_eccentricity": 0.00820362,
        "meta_inclination": 86.2002,
        "meta_ra_of_asc_node": 359.1961,
        "meta_arg_of_pericenter": 345.832,
        "meta_mean_anomaly": 14.0574,
        "meta_ephemeris_type": 0,
        "meta_classification_type": "U",
        "meta_norad_cat_id": 34097,
        "meta_element_set_no": 999,
        "meta_rev_at_epoch": 87191,
        "meta_bstar": 0.0011368894,
        "meta_mean_motion_dot": 3.368e-05,
        "meta_mean_motion_ddot": 0,
        "tle_line1": "1 34097U 97051DG  25351.75126055  .00003368  00000+0  11369-2 0  9993",
        "tle_line2": "2 34097  86.2002 359.1961 0082036 345.8320  14.0574 14.34816781871911"
      },
      "geometry": {
        "type": "Point",
        "coordinates": [
          0.23996989164552207,
          19.562372729681734
        ]
      }
    },
    {
      "type": "Feature",
      "properties": {
        "norad_id": 34145,
        "name": "IRIDIUM 33 DEB",
        "group": "iridium-33-debris",
        "lat": 81.77816302346419,
        "lon": -2.7187171791967444,
        "alt_km": 704.0020363817266,
        "timestamp": "2025-12-18T10:51:26.195698+00:00",
        "meta_object_name": "IRIDIUM 33 DEB",
        "meta_object_id": "1997-051DY",
        "meta_epoch": "2025-12-17T09:30:10.692576",
        "meta_mean_motion": 14.42321969,
        "meta_eccentricity": 0.00557549,
        "meta_inclination": 86.2111,
        "meta_ra_of_asc_node": 330.4528,
        "meta_arg_of_pericenter": 79.0556,
        "meta_mean_anomaly": 281.691,
        "meta_ephemeris_type": 0,
        "meta_classification_type": "U",
        "meta_norad_cat_id": 34145,
        "meta_element_set_no": 999,
        "meta_rev_at_epoch": 87705,
        "meta_bstar": 0.00088673029,
        "meta_mean_motion_dot": 3.002e-05,
        "meta_mean_motion_ddot": 0,
        "tle_line1": "1 34145U 97051DY  25351.39595709  .00003002  00000+0  88673-3 0  9991",
        "tle_line2": "2 34145  86.2111 330.4528 0055754  79.0556 281.6910 14.42321969877056"
      },
      "geometry": {
        "type": "Point",
        "coordinates": [
          -2.7187171791967444,
          81.77816302346419
        ]
      }
    },
    {
      "type": "Feature",
      "properties": {
        "norad_id": 34146,
        "name": "IRIDIUM 33 DEB",
        "group": "iridium-33-debris",
        "lat": -39.16875433480091,
        "lon": 170.312808634038,
        "alt_km": 717.5783954251801,
        "timestamp": "2025-12-18T10:51:26.195709+00:00",
        "meta_object_name": "IRIDIUM 33 DEB",
        "meta_object_id": "1997-051DZ",
        "meta_epoch": "2025-12-17T18:04:21.043776",
        "meta_mean_motion": 14.49082256,
        "meta_eccentricity": 0.00259845,
        "meta_inclination": 86.2829,
        "meta_ra_of_asc_node": 347.5858,
        "meta_arg_of_pericenter": 204.0117,
        "meta_mean_anomaly": 329.0213,
        "meta_ephemeris_type": 0,
        "meta_classification_type": "U",
        "meta_norad_cat_id": 34146,
        "meta_element_set_no": 999,
        "meta_rev_at_epoch": 88179,
        "meta_bstar": 0.00069560917,
        "meta_mean_motion_dot": 2.672e-05,
        "meta_mean_motion_ddot": 0,
        "tle_line1": "1 34146U 97051DZ  25351.75302134  .00002672  00000+0  69561-3 0  9997",
        "tle_line2": "2 34146  86.2829 347.5858 0025984 204.0117 329.0213 14.49082256881792"
      },
      "geometry": {
        "type": "Point",
        "coordinates": [
          170.312808634038,
          -39.16875433480091
        ]
      }
    },
    {
      "type": "Feature",
      "properties": {
        "norad_id": 34159,
        "name": "IRIDIUM 33 DEB",
        "group": "iridium-33-debris",
        "lat": 76.42704115054663,
        "lon": 61.136351381472345,
        "alt_km": 774.4926398427824,
        "timestamp": "2025-12-18T10:51:26.195720+00:00",
        "meta_object_name": "IRIDIUM 33 DEB",
        "meta_object_id": "1997-051EN",
        "meta_epoch": "2025-12-17T14:27:59.153472",
        "meta_mean_motion": 14.38505774,
        "meta_eccentricity": 0.00259211,
        "meta_inclination": 86.3501,
        "meta_ra_of_asc_node": 46.1679,
        "meta_arg_of_pericenter": 270.5644,
        "meta_mean_anomaly": 89.2584,
        "meta_ephemeris_type": 0,
        "meta_classification_type": "U",
        "meta_norad_cat_id": 34159,
        "meta_element_set_no": 999,
        "meta_rev_at_epoch": 88029,
        "meta_bstar": 0.00031875512,
        "meta_mean_motion_dot": 9.96e-06,
        "meta_mean_motion_ddot": 0,
        "tle_line1": "1 34159U 97051EN  25351.60276798  .00000996  00000+0  31876-3 0  9996",
        "tle_line2": "2 34159  86.3501  46.1679 0025921 270.5644  89.2584 14.38505774880294"
      },
      "geometry": {
        "type": "Point",
        "coordinates": [
          61.136351381472345,
          76.42704115054663
        ]
      }
    }
  ]
}